NORAD_CAT_ID,OBJECT_NAME,OBJECT_TYPE,EPOCH,MEAN_MOTION,ECCENTRICITY,INCLINATION,RA_OF_ASC_NODE,ARG_OF_PERICENTER,MEAN_ANOMALY,BSTAR,MEAN_MOTION_DOT,MEAN_MOTION_DDOT,TLE_LINE0,TLE_LINE1,TLE_LINE2,SEMIMAJOR_AXIS,PERIOD,APOGEE,PERIGEE,DECAYED
49436.0,STARLINK-3049,PAYLOAD,2023-01-20 01:46:58,15.08827507,6.28e-05,53.2152,307.5097,65.5661,294.5396,0.00099745,0.00015617,0.0,0 STARLINK-3049,1 49436U 21104AE  23020.07428910  .00015617  00000-0  99745-3 0  9999,2 49436  53.2152 307.5097 0000628  65.5661 294.5396 15.08827507 67185,6917.919,95.438,540.2180000000001,539.349,0.0
49436.0,STARLINK-3049,PAYLOAD,2023-01-20 22:26:59,15.08840125,9.38e-05,53.2151,303.6439,77.6722,282.4375,0.00075519,0.00011751,0.0,0 STARLINK-3049,1 49436U 21104AE  23020.93541525  .00011751  00000-0  75519-3 0  9990,2 49436  53.2151 303.6439 0000938  77.6722 282.4375 15.08840125 67316,6917.88,95.438,540.394,539.096,0.0
49436.0,STARLINK-3049,PAYLOAD,2023-01-21 11:10:05,15.08842583,0.0001131,53.2147,301.2623,89.5882,270.524,0.00051681,7.947e-05,0.0,0 STARLINK-3049,1 49436U 21104AE  23021.46533578  .00007947  00000-0  51681-3 0  9994,2 49436  53.2147 301.2623 0001131  89.5882 270.5240 15.08842583 67392,6917.871999999999,95.437,540.52,538.955,0.0
49436.0,STARLINK-3049,PAYLOAD,2023-01-22 11:00:52,15.08850867,0.0002593999999999,53.214,296.8044,78.1006,282.0277,0.0004868,7.47e-05,0.0,0 STARLINK-3049,1 49436U 21104AE  23022.45893522  .00007470  00000-0  48680-3 0  9998,2 49436  53.2140 296.8044 0002594  78.1006 282.0277 15.08850867 67546,6917.847,95.437,541.507,537.918,0.0
49436.0,STARLINK-3049,PAYLOAD,2023-01-23 04:30:06,15.08841932,0.0001183,53.214,293.5316,82.4149,277.6977,0.00033154,4.993e-05,0.0,0 STARLINK-3049,1 49436U 21104AE  23023.18757661  .00004993  00000-0  33154-3 0  9999,2 49436  53.2140 293.5316 0001183  82.4149 277.6977 15.08841932 67653,6917.874,95.437,540.558,538.9209999999999,0.0
49436.0,STARLINK-3049,PAYLOAD,2023-01-25 02:36:17,15.08852983,0.0001568,53.2139,284.9079,72.6008,287.5156,0.00060003,9.278e-05,0.0,0 STARLINK-3049,1 49436U 21104AE  23025.10853705  .00009278  00000-0  60003-3 0  9993,2 49436  53.2139 284.9079 0001568  72.6008 287.5156 15.08852983 67942,6917.840999999999,95.437,540.79,538.621,0.0
49436.0,STARLINK-3049,PAYLOAD,2023-01-25 10:33:13,15.08842099,0.0001326,53.2139,283.4209,89.4822,270.6322,0.00019171,2.765e-05,0.0,0 STARLINK-3049,1 49436U 21104AE  23025.43973636  .00002765  00000-0  19171-3 0  9999,2 49436  53.2139 283.4209 0001326  89.4822 270.6322 15.08842099 67993,6917.874,95.437,540.656,538.822,0.0
49436.0,STARLINK-3049,PAYLOAD,2023-01-26 02:27:04,15.0884331,0.0001457,53.2137,280.444,105.3831,254.7322,0.00019826,2.869e-05,0.0,0 STARLINK-3049,1 49436U 21104AE  23026.10213693  .00002869  00000-0  19826-3 0  9996,2 49436  53.2137 280.4440 0001457 105.3831 254.7322 15.08843310 67022,6917.87,95.437,540.743,538.727,0.0
49436.0,STARLINK-3049,PAYLOAD,2023-01-26 23:07:05,15.08852524,0.0001493,53.2132,276.5782,104.5459,255.5698,0.0003669,5.558e-05,0.0,0 STARLINK-3049,1 49436U 21104AE  23026.96325464  .00005558  00000-0  36690-3 0  9996,2 49436  53.2132 276.5782 0001493 104.5459 255.5698 15.08852524 68224,6917.842,95.437,540.74,538.674,0.0
49436.0,STARLINK-3049,PAYLOAD,2023-01-27 02:17:51,15.08853813,0.0001525,53.2134,275.9835,109.1318,250.984,0.0004216999999999,6.432e-05,0.0,0 STARLINK-3049,1 49436U 21104AE  23027.09573385  .00006432  00000-0  42170-3 0  9990,2 49436  53.2134 275.9835 0001525 109.1318 250.9840 15.08853813 67172,6917.838000000001,95.437,540.758,538.648,0.0
49436.0,STARLINK-3049,PAYLOAD,2023-01-27 19:47:06,15.08839744,0.0001195,53.2124,272.7133,90.7019,269.411,0.00014493,2.019e-05,0.0,0 STARLINK-3049,1 49436U 21104AE  23027.82438022  .00002019  00000-0  14493-3 0  9993,2 49436  53.2124 272.7133 0001195  90.7019 269.4110 15.08839744 68356,6917.880999999999,95.438,540.573,538.919,0.0
49436.0,STARLINK-3049,PAYLOAD,2023-01-27 21:22:29,15.08839891,0.000137,53.2125,272.4164,112.7677,247.346,0.00011639,1.565e-05,0.0,0 STARLINK-3049,1 49436U 21104AE  23027.89061962  .00001565  00000-0  11639-3 0  9999,2 49436  53.2125 272.4164 0001370 112.7677 247.3460 15.08839891 67296,6917.880999999999,95.438,540.693,538.798,0.0
49436.0,STARLINK-3049,PAYLOAD,2023-01-28 02:08:39,15.08837871,0.0001342,53.213,271.5246,98.5855,261.5289,7.4553e-05,8.99e-06,0.0,0 STARLINK-3049,1 49436U 21104AE  23028.08934141  .00000899  00000-0  74553-4 0  9993,2 49436  53.2130 271.5246 0001342  98.5855 261.5289 15.08837871 67328,6917.887,95.438,540.68,538.824,0.0
49436.0,STARLINK-3049,PAYLOAD,2023-01-28 21:13:16,15.08841341,0.000134,53.2126,267.9565,100.7061,259.4081,0.00020912,3.042e-05,0.0,0 STARLINK-3049,1 49436U 21104AE  23028.88422244  .00003042  00000-0  20912-3 0  9999,2 49436  53.2126 267.9565 0001340 100.7061 259.4081 15.08841341 68514,6917.876,95.437,540.668,538.814,0.0
49436.0,STARLINK-3049,PAYLOAD,2023-01-29 16:17:54,15.08835292,0.0001342,53.2124,264.3879,98.3972,261.7172,9.8041e-05,1.273e-05,0.0,0 STARLINK-3049,1 49436U 21104AE  23029.67910598  .00001273  00000-0  98041-4 0  9994,2 49436  53.2124 264.3879 0001342  98.3972 261.7172 15.08835292 68634,6917.895,95.438,540.688,538.831,0.0
49436.0,STARLINK-3049,PAYLOAD,2023-01-29 22:39:27,15.08838016,0.0001336,53.2123,263.1985,98.2492,261.8652,0.00011287,1.509e-05,0.0,0 STARLINK-3049,1 49436U 21104AE  23029.94406515  .00001509  00000-0  11287-3 0  9991,2 49436  53.2123 263.1985 0001336  98.2492 261.8652 15.08838016 67604,6917.886,95.438,540.676,538.827,0.0
49436.0,STARLINK-3049,PAYLOAD,2023-01-30 14:33:18,15.08839981,0.0001336,53.2124,260.2245,93.6261,266.4883,0.00012222,1.658e-05,0.0,0 STARLINK-3049,1 49436U 21104AE  23030.60646532  .00001658  00000-0  12222-3 0  9996,2 49436  53.2124 260.2245 0001336  93.6261 266.4883 15.08839981 67705,6917.88,95.438,540.67,538.821,0.0
49436.0,STARLINK-3049,PAYLOAD,2023-01-30 22:30:14,15.08844338,0.0001324,53.2124,258.7377,93.2541,266.8602,9.9245e-05,1.292e-05,0.0,0 STARLINK-3049,1 49436U 21104AE  23030.93766245  .00001292  00000-0  99245-4 0  9991,2 49436  53.2124 258.7377 0001324  93.2541 266.8602 15.08844338 68826,6917.867,95.437,540.648,538.816,0.0
49436.0,STARLINK-3049,PAYLOAD,2023-01-31 14:24:05,15.08841083,0.0001326,53.2119,255.7637,92.1429,267.9715,0.00010067,1.315e-05,0.0,0 STARLINK-3049,1 49436U 21104AE  23031.60006355  .00001315  00000-0  10067-3 0  9995,2 49436  53.2119 255.7637 0001326  92.1429 267.9715 15.08841083 67854,6917.877,95.437,540.659,538.825,0.0
49436.0,STARLINK-3049,PAYLOAD,2023-01-31 15:59:28,15.08840945,0.0001323,53.2119,255.4662,92.3359,267.7785,8.5966e-05,1.081e-05,0.0,0 STARLINK-3049,1 49436U 21104AE  23031.66630359  .00001081  00000-0  85966-4 0  9999,2 49436  53.2119 255.4662 0001323  92.3359 267.7785 15.08840945 67862,6917.878,95.437,540.658,538.827,0.0
49436.0,STARLINK-3049,PAYLOAD,2023-01-31 23:56:24,15.08845192,0.0001351,53.2116,253.9791,91.5752,268.5394,0.00013414,1.848e-05,0.0,0 STARLINK-3049,1 49436U 21104AE  23031.99750117  .00001848  00000-0  13414-3 0  9999,2 49436  53.2116 253.9791 0001351  91.5752 268.5394 15.08845192 68982,6917.865,95.437,540.664,538.795,0.0
49436.0,STARLINK-3049,PAYLOAD,2023-02-01 14:14:52,15.08840183,0.000151,53.2102,251.3016,97.3636,262.7527,2.7956e-05,1.57e-06,0.0,0 STARLINK-3049,1 49436U 21104AE  23032.59366367  .00000157  00000-0  27956-4 0  9995,2 49436  53.2102 251.3016 0001510  97.3636 262.7527 15.08840183 68003,6917.88,95.438,540.789,538.7,0.0
49436.0,STARLINK-3049,PAYLOAD,2023-02-02 14:05:39,15.08843394,0.0001229,53.2106,246.8406,97.7385,262.3746,9.5936e-05,1.239e-05,0.0,0 STARLINK-3049,1 49436U 21104AE  23033.58726092  .00001239  00000-0  95936-4 0  9995,2 49436  53.2106 246.8406 0001229  97.7385 262.3746 15.08843394 68153,6917.87,95.437,540.585,538.885,0.0
49436.0,STARLINK-3049,PAYLOAD,2023-02-02 23:37:58,15.08843645,0.0001267,53.2109,245.0578,89.288,270.8257,0.00013697,1.893e-05,0.0,0 STARLINK-3049,1 49436U 21104AE  23033.98470106  .00001893  00000-0  13697-3 0  9990,2 49436  53.2109 245.0578 0001267  89.2880 270.8257 15.08843645 69280,6917.869,95.437,540.611,538.858,0.0
49436.0,STARLINK-3049,PAYLOAD,2023-02-03 13:56:26,15.08840423,0.0002035,53.2089,242.3786,104.1941,255.9277,9.0661e-05,1.155e-05,0.0,0 STARLINK-3049,1 49436U 21104AE  23034.58086434  .00001155  00000-0  90661-4 0  9992,2 49436  53.2089 242.3786 0002035 104.1941 255.9277 15.08840423 69374,6917.879,95.438,541.152,538.336,0.0
49436.0,STARLINK-3049,PAYLOAD,2023-02-04 13:47:13,15.0884616,0.0001053,53.2136,237.92,87.9887,272.1226,3.1291e-05,2.1e-06,0.0,0 STARLINK-3049,1 49436U 21104AE  23035.57446278  .00000210  00000-0  31291-4 0  9993,2 49436  53.2136 237.9200 0001053  87.9887 272.1226 15.08846160 68451,6917.862,95.437,540.455,538.998,0.0
49436.0,STARLINK-3049,PAYLOAD,2023-02-04 21:44:08,15.08860905,0.0001509,53.2116,236.4335,100.1279,259.9883,-0.00027487,-4.662e-05,0.0,0 STARLINK-3049,1 49436U 21104AE  23035.90565305 -.00004662  00000-0 -27487-3 0  9991,2 49436  53.2116 236.4335 0001509 100.1279 259.9883 15.08860905 69570,6917.816,95.436,540.725,538.638,0.0
49436.0,STARLINK-3049,PAYLOAD,2023-02-05 05:41:05,15.08837581,0.0001289,53.2118,234.9466,81.0986,279.0152,0.00012025,1.626e-05,0.0,0 STARLINK-3049,1 49436U 21104AE  23036.23686675  .00001626  00000-0  12025-3 0  9999,2 49436  53.2118 234.9466 0001289  81.0986 279.0152 15.08837581 69629,6917.888,95.438,540.644,538.861,0.0
49436.0,STARLINK-3049,PAYLOAD,2023-02-05 13:38:00,15.08837737,0.0001307,53.2118,233.459,91.6138,268.5004,8.315e-05,1.036e-05,0.0,0 STARLINK-3049,1 49436U 21104AE  23036.56806705  .00001036  00000-0  83150-4 0  9996,2 49436  53.2118 233.4590 0001307  91.6138 268.5004 15.08837737 68607,6917.887,95.438,540.656,538.848,0.0
49436.0,STARLINK-3049,PAYLOAD,2023-02-05 21:34:56,15.08840463,0.000125,53.2117,231.9727,85.2729,274.8406,0.00010448,1.375e-05,0.0,0 STARLINK-3049,1 49436U 21104AE  23036.89926607  .00001375  00000-0  10448-3 0  9991,2 49436  53.2117 231.9727 0001250  85.2729 274.8406 15.08840463 68654,6917.879,95.438,540.609,538.879,0.0
